[Satellite]
VERSION=1.1
NAME=GORIZONT 8 [-]
NICKNAME=GORIZONT 8 [-]
TLE1=1 14532U 83118A   17186.06410035 -.00000101  00000-0  00000-0 0  9991
TLE2=2 14532  14.8567 343.1081 0023958 103.1538 251.5964  0.98269794 88378
